NORAD_CAT_ID,OBJECT_NAME,OBJECT_TYPE,EPOCH,MEAN_MOTION,ECCENTRICITY,INCLINATION,RA_OF_ASC_NODE,ARG_OF_PERICENTER,MEAN_ANOMALY,BSTAR,MEAN_MOTION_DOT,MEAN_MOTION_DDOT,TLE_LINE0,TLE_LINE1,TLE_LINE2,SEMIMAJOR_AXIS,PERIOD,APOGEE,PERIGEE,DECAYED
55764.0,STARLINK-5499,PAYLOAD,2023-09-30 04:51:44,14.98331826,0.0003236,69.9995,312.3438,269.6219,90.4569,8.0535e-05,8.68e-06,0.0,0 STARLINK-5499,1 55764U 23028Z   23273.20259877  .00000868  00000-0  80535-4 0  9996,2 55764  69.9995 312.3438 0003236 269.6219  90.4569 14.98331826 32990,6950.187,96.107,574.301,569.803,0.0
55764.0,STARLINK-5499,PAYLOAD,2023-09-30 11:16:16,14.98335135,0.0003182,69.9995,311.6707,269.8283,90.2511,0.00011616,1.293e-05,0.0,0 STARLINK-5499,1 55764U 23028Z   23273.46963515  .00001293  00000-0  11616-3 0  9991,2 55764  69.9995 311.6707 0003182 269.8283  90.2511 14.98335135 33032,6950.177,96.107,574.254,569.83,0.0
55764.0,STARLINK-5499,PAYLOAD,2023-10-01 11:18:17,14.98333487,0.0003,69.9998,309.1461,269.3082,90.7734,-1.8548e-06,-1.15e-06,0.0,0 STARLINK-5499,1 55764U 23028Z   23274.47103725 -.00000115  00000-0 -18548-5 0  9999,2 55764  69.9998 309.1461 0003000 269.3082  90.7734 14.98333487 33181,6950.182,96.107,574.132,569.962,0.0
55764.0,STARLINK-5499,PAYLOAD,2023-10-01 12:54:25,14.98334523,0.0002999,69.9998,308.9777,269.5646,90.5169,9.6681e-06,2.2e-07,0.0,0 STARLINK-5499,1 55764U 23028Z   23274.53779607  .00000022  00000-0  96681-5 0  9993,2 55764  69.9998 308.9777 0002999 269.5646  90.5169 14.98334523 33195,6950.179,96.107,574.128,569.96,0.0
55764.0,STARLINK-5499,PAYLOAD,2023-10-02 03:19:38,14.98327781,0.0002924,69.9999,307.4625,271.4364,88.646,-9.4705e-05,-1.223e-05,0.0,0 STARLINK-5499,1 55764U 23028Z   23275.13864287 -.00001223  00000-0 -94705-4 0  9999,2 55764  69.9999 307.4625 0002924 271.4364  88.6460 14.98327781 33289,6950.2,96.107,574.097,570.033,0.0
55764.0,STARLINK-5499,PAYLOAD,2023-10-02 19:20:59,14.98328338,0.0002937,69.9999,305.7794,270.3959,89.6864,-2.3096e-05,-3.69e-06,0.0,0 STARLINK-5499,1 55764U 23028Z   23275.80624136 -.00000369  00000-0 -23096-4 0  9995,2 55764  69.9999 305.7794 0002937 270.3959  89.6864 14.98328338 33388,6950.198,96.107,574.104,570.022,0.0
55764.0,STARLINK-5499,PAYLOAD,2023-10-03 03:21:39,14.9833026,0.0003066,69.9992,304.9372,270.5677,89.5131,4.3013e-05,4.2e-06,0.0,0 STARLINK-5499,1 55764U 23028Z   23276.14003807  .00000420  00000-0  43013-4 0  9996,2 55764  69.9992 304.9372 0003066 270.5677  89.5131 14.98330260 33436,6950.192,96.107,574.188,569.926,0.0
55764.0,STARLINK-5499,PAYLOAD,2023-10-03 11:22:19,14.9833271,0.0003133,69.9988,304.0953,270.9905,89.0895,3.5118e-05,3.26e-06,0.0,0 STARLINK-5499,1 55764U 23028Z   23276.47383658  .00000326  00000-0  35118-4 0  9999,2 55764  69.9988 304.0953 0003133 270.9905  89.0895 14.98332710 33489,6950.185,96.107,574.227,569.872,0.0
55764.0,STARLINK-5499,PAYLOAD,2023-10-04 09:48:12,14.98327823,0.0003091,69.9989,301.7386,269.5116,90.5689,7.4751e-05,7.99e-06,0.0,0 STARLINK-5499,1 55764U 23028Z   23277.40847967  .00000799  00000-0  74751-4 0  9991,2 55764  69.9989 301.7386 0003091 269.5116  90.5689 14.98327823 33628,6950.2,96.107,574.213,569.916,0.0
55764.0,STARLINK-5499,PAYLOAD,2023-10-04 11:24:20,14.98328026,0.0003063,69.9989,301.5701,268.8217,91.2591,7.6798e-05,8.23e-06,0.0,0 STARLINK-5499,1 55764U 23028Z   23277.47523961  .00000823  00000-0  76798-4 0  9994,2 55764  69.9989 301.5701 0003063 268.8217  91.2591 14.98328026 33637,6950.199,96.107,574.193,569.935,0.0
55764.0,STARLINK-5499,PAYLOAD,2023-10-05 09:50:13,14.98332851,0.0003029,69.9989,299.214,269.0571,91.0241,2.5906e-05,2.16e-06,0.0,0 STARLINK-5499,1 55764U 23028Z   23278.40987775  .00000216  00000-0  25906-4 0  9996,2 55764  69.9989 299.2140 0003029 269.0571  91.0241 14.98332851 33771,6950.184,96.107,574.154,569.944,0.0
55764.0,STARLINK-5499,PAYLOAD,2023-10-05 11:26:21,14.98333069,0.0003031,69.9989,299.0457,269.1048,90.9764,2.7507e-05,2.35e-06,0.0,0 STARLINK-5499,1 55764U 23028Z   23278.47663741  .00000235  00000-0  27507-4 0  9997,2 55764  69.9989 299.0457 0003031 269.1048  90.9764 14.98333069 33784,6950.183,96.107,574.155,569.942,0.0
55764.0,STARLINK-5499,PAYLOAD,2023-10-06 09:52:14,14.98334029,0.0003034,69.9988,296.6889,268.9972,91.0839,3.7728e-05,3.57e-06,0.0,0 STARLINK-5499,1 55764U 23028Z   23279.41127557  .00000357  00000-0  37728-4 0  9993,2 55764  69.9988 296.6889 0003034 268.9972  91.0839 14.98334029 33929,6950.18,96.107,574.154,569.937,0.0
55764.0,STARLINK-5499,PAYLOAD,2023-10-06 11:28:22,14.98334602,0.0003027,69.9988,296.5205,268.9853,91.0959,4.3424e-05,4.25e-06,0.0,0 STARLINK-5499,1 55764U 23028Z   23279.47803484  .00000425  00000-0  43424-4 0  9995,2 55764  69.9988 296.5205 0003027 268.9853  91.0959 14.98334602 33931,6950.179,96.107,574.147,569.94,0.0
55764.0,STARLINK-5499,PAYLOAD,2023-10-06 17:52:54,14.98329587,0.0003002,69.9989,295.847,269.4903,90.5912,1.7223e-05,1.12e-06,0.0,0 STARLINK-5499,1 55764U 23028Z   23279.74507837  .00000112  00000-0  17223-4 0  9999,2 55764  69.9989 295.8470 0003002 269.4903  90.5912 14.98329587 33976,6950.194,96.107,574.146,569.973,0.0
55764.0,STARLINK-5499,PAYLOAD,2023-10-07 09:54:14,14.98367327,0.0003119,69.9989,294.1634,268.4144,91.6658,-0.00061894,-7.477e-05,0.0,0 STARLINK-5499,1 55764U 23028Z   23280.41266938 -.00007477  00000-0 -61894-3 0  9994,2 55764  69.9989 294.1634 0003119 268.4144  91.6658 14.98367327 34070,6950.077,96.105,574.11,569.775,0.0
55764.0,STARLINK-5499,PAYLOAD,2023-10-07 11:30:22,14.98364115,0.000311,69.9989,293.9951,268.7977,91.2825,-0.00055565,-6.723e-05,0.0,0 STARLINK-5499,1 55764U 23028Z   23280.47942874 -.00006723  00000-0 -55565-3 0  9991,2 55764  69.9989 293.9951 0003110 268.7977  91.2825 14.98364115 34082,6950.087,96.105,574.114,569.791,0.0
55764.0,STARLINK-5499,PAYLOAD,2023-10-07 17:54:55,14.98332983,0.0002917,69.999,293.3216,270.3405,89.742,-8.333e-05,-1.087e-05,0.0,0 STARLINK-5499,1 55764U 23028Z   23280.74647850 -.00001087  00000-0 -83330-4 0  9997,2 55764  69.9990 293.3216 0002917 270.3405  89.7420 14.98332983 34127,6950.184,96.107,574.076,570.021,0.0
55764.0,STARLINK-5499,PAYLOAD,2023-10-08 09:56:16,14.9832771,0.0002638,69.9988,291.6379,267.7651,92.3206,4.7012e-05,4.68e-06,0.0,0 STARLINK-5499,1 55764U 23028Z   23281.41407920  .00000468  00000-0  47012-4 0  9991,2 55764  69.9988 291.6379 0002638 267.7651  92.3206 14.98327710 34223,6950.2,96.107,573.898,570.232,0.0
55764.0,STARLINK-5499,PAYLOAD,2023-10-08 17:56:56,14.98333185,0.0002889,69.999,290.7964,271.0243,89.0585,-1.5466e-05,-2.78e-06,0.0,0 STARLINK-5499,1 55764U 23028Z   23281.74787673 -.00000278  00000-0 -15466-4 0  9992,2 55764  69.9990 290.7964 0002889 271.0243  89.0585 14.98333185 34270,6950.183,96.107,574.056,570.04,0.0
55764.0,STARLINK-5499,PAYLOAD,2023-10-09 03:33:43,14.98351822,0.0002715,69.9988,289.7861,258.1124,101.973,0.00027323,3.17e-05,0.0,0 STARLINK-5499,1 55764U 23028Z   23282.14841671  .00003170  00000-0  27323-3 0  9992,2 55764  69.9988 289.7861 0002715 258.1124 101.9730 14.98351822 34334,6950.125,96.106,573.877,570.103,0.0
55764.0,STARLINK-5499,PAYLOAD,2023-10-09 09:58:15,14.98354035,0.0003035,69.9985,289.1126,267.3001,92.7811,0.00029173,3.392e-05,0.0,0 STARLINK-5499,1 55764U 23028Z   23282.41545179  .00003392  00000-0  29173-3 0  9997,2 55764  69.9985 289.1126 0003035 267.3001  92.7811 14.98354035 34371,6950.119,96.105,574.093,569.874,0.0
55764.0,STARLINK-5499,PAYLOAD,2023-10-09 17:58:56,14.98339959,0.0002741,69.9988,288.2709,275.0273,85.0573,0.00011454,1.274e-05,0.0,0 STARLINK-5499,1 55764U 23028Z   23282.74926339  .00001274  00000-0  11454-3 0  9994,2 55764  69.9988 288.2709 0002741 275.0273  85.0573 14.98339959 34425,6950.162,96.106,573.932,570.122,0.0
55764.0,STARLINK-5499,PAYLOAD,2023-10-10 01:59:38,14.98320663,0.0003085,69.9989,287.4295,272.0399,88.0407,-0.00010409,-1.334e-05,0.0,0 STARLINK-5499,1 55764U 23028Z   23283.08307940 -.00001334  00000-0 -10409-3 0  9991,2 55764  69.9989 287.4295 0003085 272.0399  88.0407 14.98320663 34471,6950.222,96.108,574.231,569.943,0.0
55764.0,STARLINK-5499,PAYLOAD,2023-10-10 10:00:18,14.98324109,0.0002989,69.9988,286.5878,272.902,87.1797,-6.1645e-05,-8.28e-06,0.0,0 STARLINK-5499,1 55764U 23028Z   23283.41687721 -.00000828  00000-0 -61645-4 0  9992,2 55764  69.9988 286.5878 0002989 272.9020  87.1797 14.98324109 34526,6950.211,96.107,574.154,569.999,0.0
55764.0,STARLINK-5499,PAYLOAD,2023-10-10 18:00:58,14.98323775,0.0002948,69.999,285.7461,272.6752,87.4069,-7.6454e-05,-1.005e-05,0.0,0 STARLINK-5499,1 55764U 23028Z   23283.75067861 -.00001005  00000-0 -76454-4 0  9998,2 55764  69.9990 285.7461 0002948 272.6752  87.4069 14.98323775 34570,6950.212,96.107,574.126,570.028,0.0
55764.0,STARLINK-5499,PAYLOAD,2023-10-11 02:01:39,14.98323637,0.0002967,69.9987,284.9045,272.8175,87.2644,-8.2038e-05,-1.072e-05,0.0,0 STARLINK-5499,1 55764U 23028Z   23284.08447975 -.00001072  00000-0 -82038-4 0  9992,2 55764  69.9987 284.9045 0002967 272.8175  87.2644 14.98323637 34627,6950.213,96.107,574.14,570.015,0.0
55764.0,STARLINK-5499,PAYLOAD,2023-10-11 10:02:18,14.98337369,0.0003124,69.9988,284.0626,271.81,88.2701,-0.00025548,-3.141e-05,0.0,0 STARLINK-5499,1 55764U 23028Z   23284.41827543 -.00003141  00000-0 -25548-3 0  9993,2 55764  69.9988 284.0626 0003124 271.8100  88.2701 14.98337369 34674,6950.17,96.107,574.206,569.864,0.0
55764.0,STARLINK-5499,PAYLOAD,2023-10-11 18:02:59,14.98323846,0.0002845,69.9991,283.2214,277.2941,82.7895,-2.829e-06,-1.27e-06,0.0,0 STARLINK-5499,1 55764U 23028Z   23284.75207921 -.00000127  00000-0 -28290-5 0  9992,2 55764  69.9991 283.2214 0002845 277.2941  82.7895 14.98323846 34728,6950.212,96.107,574.054,570.1,0.0
55764.0,STARLINK-5499,PAYLOAD,2023-10-12 10:04:19,14.98324688,0.0002931,69.999,281.5377,269.187,90.8953,0.00016817,1.914e-05,0.0,0 STARLINK-5499,1 55764U 23028Z   23285.41967425  .00001914  00000-0  16817-3 0  9991,2 55764  69.9990 281.5377 0002931 269.1870  90.8953 14.98324688 34826,6950.209,96.107,574.111,570.037,0.0
